STARLINK-31650          
1 59512U 24073B   26068.09562253  .00004401  00000+0  16941-3 0  9994
2 59512  43.0062 321.4729 0001120  14.9251 345.1633 15.27567219106088
FLOCK 4G-24             
1 62637U 25009AE  26068.72509072  .00010513  00000+0  38996-3 0  9991
2 62637  97.4061 151.5140 0001802 280.2808  79.8228 15.27784978 63732
